     2.11           N: GPS NAV DATA                         RINEX VERSION / TYPE
teqc  2019Feb25                         20221121 12:24:50UTCPGM / RUN BY / DATE
OSX ker:10.11.6|Core i5|gcc 4.3 -m64|OSX ker:10.10+|=+      COMMENT
    4.6566D-09  1.4901D-08 -5.9605D-08 -1.1921D-07          ION ALPHA
    8.1920D+04  8.1920D+04 -6.5536D+04 -5.2429D+05          ION BETA
    1.862645149231D-09 9.769962616701D-15    61440     1539 DELTA-UTC: A0,A1,T,W
                                                            END OF HEADER
22 09  7  3 23 59 44.0 1.962659880519D-04-7.958078640513D-13 0.000000000000D+00
    5.000000000000D+00 1.124375000000D+02 4.534117435619D-09 2.890318469343D+00
    5.811452865601D-06 5.128737539053D-03 7.245689630508D-06 5.153662746429D+03
    5.183840000000D+05 4.842877388000D-08 5.655161018441D-02 6.705522537231D-08
    9.398595086010D-01 2.287812500000D+02-1.892969317245D+00-7.925687279545D-09
    1.892935991239D-11 1.000000000000D+00 1.538000000000D+03 0.000000000000D+00
    2.000000000000D+00 0.000000000000D+00-1.769512891769D-08 5.000000000000D+00
    5.152620000000D+05 4.000000000000D+00
19 09  7  3 23 59 44.0 2.032984048128D-05-1.364242052659D-12 0.000000000000D+00
    2.400000000000D+01 4.750000000000D+00 5.102712548459D-09 1.994098362955D+00
    5.383044481277D-07 5.719497567043D-03 5.682930350304D-06 5.153615343094D+03
    5.183840000000D+05 1.378357410431D-07-1.998626926811D+00 1.192092895508D-07
    9.571473279538D-01 2.661250000000D+02-3.336611837219D-01-8.124981295227D-09
   -1.025042697143D-10 1.000000000000D+00 1.538000000000D+03 0.000000000000D+00
    2.000000000000D+00 0.000000000000D+00-1.443549990654D-08 2.400000000000D+01
    5.112180000000D+05 4.000000000000D+00
 8 09  7  3 23 59 44.0-2.102605067194D-04-1.705302565824D-12 0.000000000000D+00
    3.300000000000D+01-1.151250000000D+02 3.780157458731D-09-8.411528401807D-01
   -6.191432476044D-06 1.069066778291D-02 6.131827831268D-06 5.153641588211D+03
    5.183840000000D+05 8.381903171539D-08 2.178527007160D+00-1.806765794754D-07
    9.890528017677D-01 2.720312500000D+02 2.996598699770D+00-7.761037564081D-09
    1.046472161195D-10 1.000000000000D+00 1.538000000000D+03 0.000000000000D+00
    2.000000000000D+00 0.000000000000D+00-3.725290298462D-09 3.300000000000D+01
    5.112180000000D+05 4.000000000000D+00
 3 09  7  3 23 59 44.0 4.152208566666D-04 5.229594535194D-12 0.000000000000D+00
    1.300000000000D+01 7.125000000000D+00 5.867387257373D-09 1.255969865169D+00
    5.159527063370D-07 1.202011166606D-02 6.219372153282D-06 5.153630443573D+03
    5.183840000000D+05-2.086162567139D-07-2.186818234351D+00 1.657754182816D-07
    9.261989214799D-01 2.457500000000D+02 9.102595073679D-01-8.656074845976D-09
    7.428880871279D-11 1.000000000000D+00 1.538000000000D+03 0.000000000000D+00
    2.000000000000D+00 0.000000000000D+00-4.190951585770D-09 1.300000000000D+01
    5.113980000000D+05 4.000000000000D+00
